POPACS 1                
1 39268U 13055D   22157.69347000  .00010558  00000+0  27203-3 0  9993
2 39268  80.9978 251.0616 0572843 232.9375 121.8134 14.49894459451740
POPACS 2                
1 39269U 13055E   22158.17342211  .00005497  00000+0  15005-3 0  9990
2 39269  81.0112 307.0442 0647831  18.0775 344.2312 14.32814228449934
POPACS 3                
1 39270U 13055F   22157.75019501  .00006566  00000+0  19651-3 0  9997
2 39270  81.0146 340.1511 0690725 111.7770 255.8345 14.21757754427111
ASTRA 2E                
1 39285U 13056A   22157.89875925  .00000162  00000+0  00000+0 0  9999
2 39285   0.0577 348.7405 0002251  82.7781 175.7608  1.00271677 31685
SHIJIAN-16 (SJ-16)      
1 39358U 13057A   22158.20670490  .00000630  00000+0  74713-4 0  9994
2 39358  74.9755 247.3857 0018674 186.8867 173.2064 14.86162937467471
FM-6                    
1 39360U 13058A   22158.23051413 -.00000005  00000+0  00000+0 0  9999
2 39360   0.0301 294.5948 0000731  14.7643 273.0701  1.00270681 31597
RADUGA-1M 3             
1 39375U 13062A   22157.82104450  .00000167  00000+0  00000+0 0  9992
2 39375   2.2043  89.9397 0004045 144.4450 351.3823  1.00272303 31377
STPSAT-3                
1 39380U 13064A   22157.54829453  .00017797  00000+0  38635-3 0  9992
2 39380  40.4972 104.4216 0007577 242.2805 117.7243 15.43876677479265
YAOGAN 19               
1 39410U 13065A   22158.09437045 -.00000029  00000+0  34570-4 0  9996
2 39410 100.0704 186.2510 0008787 238.3989 121.6278 13.15500169410256
APRIZESAT 7             
1 39416U 13066A   22157.90338528  .00000498  00000+0  64385-4 0  9994
2 39416  97.5713 138.5620 0041752  34.7797 325.6135 14.84439214462476
ZACUBE-1 (TSHEPISOSAT)  
1 39417U 13066B   22158.17438961  .00001118  00000+0  14207-3 0  9994
2 39417  97.6357 130.1365 0059543  78.6559 282.1336 14.82298919461603
SKYSAT-A                
1 39418U 13066C   22158.16725256  .00000244  00000+0  24315-4 0  9991
2 39418  97.5572 230.2992 0020696 302.5809  57.3416 14.99853602467111
DUBAISAT-2              
1 39419U 13066D   22158.13355548  .00001154  00000+0  11044-3 0  9997
2 39419  97.4448 190.6466 0012458 319.9461  40.0814 14.94962541465657
OPTOS                   
1 39420U 13066E   22158.02754447  .00000980  00000+0  17522-3 0  9991
2 39420  97.8243  76.7562 0136768  30.0431 330.8529 14.63137696455749
STSAT-3                 
1 39422U 13066G   22157.74575157  .00000215  00000+0  27292-4 0  9997
2 39422  97.4685 163.4734 0021602 320.9635  39.0016 14.90471918464241
WNISAT-1                
1 39423U 13066H   22158.10581167  .00000255  00000+0  59559-4 0  9992
2 39423  97.7546  40.3482 0174471 169.7630 190.7190 14.53473255452948
APRIZESAT 8             
1 39425U 13066K   22158.18565425  .00000399  00000+0  55988-4 0  9992
2 39425  97.6257 130.1299 0053106  74.7631 285.9445 14.81594268461713
TRITON-1                
1 39427U 13066M   22158.04906075  .00000817  00000+0  13551-3 0  9993
2 39427  97.8130  94.2967 0110556 298.4466  60.5636 14.68947995457441
DELFI-N3XT              
1 39428U 13066N   22157.62940052  .00001485  00000+0  23595-3 0  9991
2 39428  97.8143  92.4525 0116361 313.1916  45.9613 14.69146920456947
GOMX-1                  
1 39430U 13066Q   22158.17593775  .00000867  00000+0  16215-3 0  9995
2 39430  97.8112  65.9629 0150817  77.3996 284.4024 14.60154837454791
FIRST-MOVE              
1 39439U 13066Z   22157.88968526  .00002520  00000+0  29692-3 0  9992
2 39439  97.6367 132.1840 0064821  75.2019 285.6365 14.84124221460488
CUBEBUG-2 (LO-74)       
1 39440U 13066AA  22157.88704599  .00000731  00000+0  10568-3 0  9996
2 39440  97.7255 115.8897 0079114 164.6174 195.7468 14.76974569458721
NEE-02 KRYSAOR          
1 39441U 13066AB  22157.67684358  .00000487  00000+0  74791-4 0  9991
2 39441  97.7366 112.8803 0080571 178.7987 181.3431 14.75720489458445
FUNCUBE-1 (AO-73)       
1 39444U 13066AE  22158.19857621  .00001377  00000+0  16927-3 0  9992
2 39444  97.6237 132.5635 0058352  67.2254 293.5112 14.83373421460597
UWE-3                   
1 39446U 13066AG  22157.85962766  .00000909  00000+0  12330-3 0  9997
2 39446  97.6847 122.3823 0070078 123.0778 237.7189 14.79526222458891
SWARM B                 
1 39451U 13067A   22157.81190925  .00001197  00000+0  53347-4 0  9994
2 39451  87.7516  64.4978 0002793  82.0972 278.0590 15.20443606459319
SWARM A                 
1 39452U 13067B   22157.80799051  .00000448  00000+0  10500-4 0  9991
2 39452  87.3629 228.3755 0003596  95.7165 264.4499 15.38870217480291
SWARM C                 
1 39453U 13067C   22158.19181570  .00002926  00000+0  75069-4 0  9990
2 39453  87.3475 227.7243 0003693  94.6668 265.5008 15.38865182480361
SHIYAN 5 (SY-5)         
1 39455U 13068A   22158.19480459  .00000147  00000+0  57528-4 0  9994
2 39455  98.2163  71.0486 0015748  90.0736 270.2259 14.42033040449569
SES-8                   
1 39460U 13071A   22158.12004521 -.00000257  00000+0  00000+0 0  9990
2 39460   0.0371 264.3887 0002804 175.5943 313.7335  1.00271039 31126
AEROCUBE 5A             
1 39465U 13072D   22158.15802530  .00018631  00000+0  11382-2 0  9997
2 39465 120.4839 274.0837 0197544 267.1946  90.6492 14.95616779148088
AEROCUBE 5B             
1 39466U 13072E   22158.18746978  .00041257  00000+0  16307-2 0  9996
2 39466 120.4623 359.2627 0147755 290.1230  68.3999 15.15646611149170
INMARSAT 5-F1           
1 39476U 13073A   22157.61126616  .00000039  00000+0  00000+0 0  9999
2 39476   0.0174 356.9564 0000241 263.8107 276.8883  1.00274291 31175
TKSAT-1 (TUPAC KATARI)  
1 39481U 13075A   22158.15532414 -.00000183  00000+0  00000+0 0  9995
2 39481   0.0415 149.0730 0002529 267.8946 167.3037  1.00272573 31098
COSMOS 2488             
1 39483U 13076A   22157.86916260  .00000035  00000+0  18016-3 0  9995
2 39483  82.4873   5.6128 0020328  61.5494 298.7623 12.42884738383319
COSMOS 2489             
1 39484U 13076B   22157.84081453  .00000030  00000+0  14501-3 0  9991
2 39484  82.4907   6.5620 0022283  62.3993 297.9341 12.42894180383376
COSMOS 2490             
1 39485U 13076C   22157.81569023  .00000025  00000+0  10723-3 0  9999
2 39485  82.4845   5.2955 0021941  76.5018 283.8505 12.42891442383318
EXPRESS-AM5             
1 39487U 13077A   22157.26794453 -.00000269  00000+0  00000+0 0  9992
2 39487   0.0211 228.6354 0001175 102.9844 159.5266  1.00270201 31594
COSMOS 2493 (SKRL-756 1)
1 39490U 13078A   22158.23845071  .00000782  00000+0  79443-4 0  9999
2 39490  82.4191 243.9717 0018441 128.4390 231.8487 14.89406905458501
COSMOS 2494 (SKRL-756 2)
1 39491U 13078B   22158.22336500  .00000808  00000+0  79082-4 0  9999
2 39491  82.4192 237.7896 0023212 106.6378 253.7392 14.90854413458813
GSAT-14                 
1 39498U 14001A   22157.82871970 -.00000066  00000+0  00000+0 0  9999
2 39498   0.0248 267.1819 0001745 358.4567   1.9415  1.00270947 30641
THAICOM 6               
1 39500U 14002A   22158.11673091 -.00000109  00000+0  00000+0 0  9999
2 39500   0.0672 122.4951 0003562 344.1865 269.3454  1.00271836 30773
TDRS 12                 
1 39504U 14004A   22158.02114241 -.00000262  00000+0  00000+0 0  9992
2 39504   3.8684 347.1256 0005251 115.8455 119.0788  1.00267389 30690
ABS-2                   
1 39508U 14006A   22157.82898135 -.00000075  00000+0  00000+0 0  9998
2 39508   0.0291  35.4647 0004095  13.8008 219.3063  1.00271970 30538
ATHENA-FIDUS            
1 39509U 14006B   22157.82156781  .00000165  00000+0  00000+0 0  9992
2 39509   0.0118 357.6002 0001368  70.0971 161.0688  1.00271049 30325
TURKSAT 4A              
1 39522U 14007A   22158.10949181  .00000158  00000+0  00000+0 0  9996
2 39522   0.0539 269.4469 0000554 129.1553 298.3245  1.00272631 30457
NAVSTAR 69 (USA 248)    
1 39533U 14008A   22157.37492901  .00000045  00000+0  00000+0 0  9995
2 39533  53.6244 209.3091 0059776 208.3671 151.3820  2.00553019 60162
GPM-CORE                
1 39574U 14009C   22157.84377580  .00011088  00000+0  15593-3 0  9994
2 39574  65.0017 224.4101 0011290 271.4859  88.4994 15.57028056469956
EXPRESS-AT1             
1 39612U 14010A   22156.74894420  .00000089  00000+0  00000+0 0  9996
2 39612   0.0275 204.4125 0000151 276.4880  98.8780  1.00272802 30282
EXPRESS-AT2             
1 39613U 14010B   22157.83938139 -.00000270  00000+0  00000+0 0  9997
2 39613   0.0187 226.0140 0000127  16.3684  94.8492  1.00269730 30123
AMAZONAS 4A             
1 39616U 14011A   22158.15116887 -.00000241  00000+0  00000+0 0  9993
2 39616   0.0192 328.1508 0003231 117.2504 150.5617  1.00276007 30118
ASTRA 5B                
1 39617U 14011B   22157.82034676  .00000166  00000+0  00000+0 0  9997
2 39617   0.0399 328.1943 0003581 113.2055 140.6487  1.00274294 30117
COSMOS 2492 [GLONASS-M] 
1 39620U 14012A   22157.47790677 -.00000045  00000+0  00000+0 0  9990
2 39620  65.8421   3.5062 0012679 334.0884 186.1646  2.13103188 63872
SJ-11-06                
1 39624U 14014A   22158.11517435  .00000205  00000+0  53338-4 0  9991
2 39624  98.1344 207.4232 0013081 277.9782  81.9941 14.59140198436120
SENTINEL-1A             
1 39634U 14016A   22158.16765023 -.00000002  00000+0  93322-5 0  9991
2 39634  98.1820 165.8654 0001333  82.2279 277.9070 14.59197170435525
IRNSS-1B                
1 39635U 14017A   22157.39441128  .00000097  00000+0  00000+0 0  9992
2 39635  28.7644 265.2909 0022948 184.4640   2.2217  1.00278843 30026
LUCH 5V                 
1 39727U 14023A   22157.83293319 -.00000256  00000+0  00000+0 0  9995
2 39727   1.4731  75.2779 0003863  29.9290 184.5534  1.00267997 29602
KAZSAT-3                
1 39728U 14023B   22157.82575428  .00000072  00000+0  00000+0 0  9994
2 39728   0.0225  76.5571 0000701  81.0922  93.3304  1.00271380 29680
KAZEOSAT 1              
1 39731U 14024A   22158.14847153  .00000107  00000+0  46109-4 0  9996
2 39731  98.4633 233.7267 0001068  84.3173 275.8138 14.41986552426606
